[{"OBJECT_NAME":"SHIYAN-6 01 (SY-6 01)","OBJECT_ID":"2018-094B","EPOCH":"2026-03-09T23:04:36.967872","MEAN_MOTION":15.28649156,"ECCENTRICITY":0.00144834,"INCLINATION":97.3669,"RA_OF_ASC_NODE":84.0964,"ARG_OF_PERICENTER":135.6758,"MEAN_ANOMALY":224.5644,"EPHEMERIS_TYPE":0,"CLASSIFICATION_TYPE":"U","NORAD_CAT_ID":43711,"ELEMENT_SET_NO":999,"REV_AT_EPOCH":40632,"BSTAR":0.00024768444,"MEAN_MOTION_DOT":6.847e-5,"MEAN_MOTION_DDOT":0},{"OBJECT_NAME":"STARLINK-35639","OBJECT_ID":"2025-257C","EPOCH":"2026-03-09T22:00:42.141888","MEAN_MOTION":15.30215678,"ECCENTRICITY":0.00012157,"INCLINATION":53.1585,"RA_OF_ASC_NODE":216.3018,"ARG_OF_PERICENTER":77.4223,"MEAN_ANOMALY":282.6914,"EPHEMERIS_TYPE":0,"CLASSIFICATION_TYPE":"U","NORAD_CAT_ID":66382,"ELEMENT_SET_NO":999,"REV_AT_EPOCH":1976,"BSTAR":0.0008620011,"MEAN_MOTION_DOT":0.0002527,"MEAN_MOTION_DDOT":0}]
